IRIDIUM 64 [+]          
1 25287U 98021C   17030.29394212  .00000188  00000-0  60182-4 0  9995
2 25287  86.3960 281.5890 0001929  80.8920 279.2494 14.34221092985231
IRIDIUM 65 [+]          
1 25288U 98021D   17030.30030180  .00000172  00000-0  54523-4 0  9994
2 25288  86.3958 281.4922 0002190  84.6103 275.5342 14.34220662985255
IRIDIUM 66 [+]          
1 25289U 98021E   17030.30662613  .00000171  00000-0  54086-4 0  9990
2 25289  86.3958 281.3940 0002114  86.8313 273.3125 14.34221296985246
IRIDIUM 67 [+]          
1 25290U 98021F   17030.24321570  .00000169  00000-0  53127-4 0  9991
2 25290  86.3959 281.5550 0002050  85.5267 274.6163 14.34220509985254
IRIDIUM 68 [+]          
1 25291U 98021G   17030.24956272  .00000179  00000-0  57004-4 0  9994
2 25291  86.3961 281.6685 0002047  83.8658 276.2771 14.34220316985225
IRIDIUM 69 [-]          
1 25319U 98026A   17030.32665995  .00000127  00000-0  34990-4 0  9990
2 25319  86.4013 303.7199 0003144  49.4790 310.6682 14.38648632983215
IRIDIUM 71 [-]          
1 25320U 98026B   17030.35655788  .00000158  00000-0  44551-4 0  9992
2 25320  86.3992 299.6629 0004168  82.3626 277.8046 14.39059929983645
IRIDIUM 70 [+]          
1 25342U 98032A   17030.30175316  .00000181  00000-0  57609-4 0  9996
2 25342  86.3964 281.8821 0002160  87.5208  51.1610 14.34222090979335
IRIDIUM 72 [+]          
1 25343U 98032B   17030.26223517  .00000166  00000-0  52194-4 0  9996
2 25343  86.3959 281.5192 0002088  85.5976 274.5458 14.34220388979336
IRIDIUM 73 [-]          
1 25344U 98032C   17030.23772070  .00000142  00000-0  31974-4 0  9994
2 25344  86.4411 261.2196 0002392 105.3875 254.7594 14.49006513987571
IRIDIUM 74 [S]          
1 25345U 98032D   17030.33523793  .00000180  00000-0  48261-4 0  9991
2 25345  86.4475 281.8748 0008246 118.4491  17.9736 14.42444614982861
IRIDIUM 75 [+]          
1 25346U 98032E   17030.36181319  .00000034  00000-0  51214-5 0  9990
2 25346  86.3963 281.7253 0002085  84.4008  36.7822 14.34220086979917
IRIDIUM 3 [+]           
1 25431U 98048A   17030.41894272  .00000192  00000-0  61613-4 0  9995
2 25431  86.3988 313.3074 0002264  84.9603  51.4147 14.34217918965860
IRIDIUM 76 [+]          
1 25432U 98048B   17030.36840358  .00000205  00000-0  66077-4 0  9990
2 25432  86.3985 313.0872 0002118  88.0832  49.3463 14.34218303965842
IRIDIUM 82 [+]          
1 25467U 98051A   17030.24129832 -.00000058  00000-0 -27634-4 0  9990
2 25467  86.3926  79.8389 0002110  81.3432 278.8003 14.34215117966849
IRIDIUM 81 [+]          
1 25468U 98051B   17030.51398598  .00000106  00000-0  30925-4 0  9997
2 25468  86.3940  79.3512 0002075  96.1639 263.9793 14.34218251963101
IRIDIUM 80 [+]          
1 25469U 98051C   17030.51778035  .00000117  00000-0  34733-4 0  9999
2 25469  86.3945  79.6310 0002047  95.9784  21.8723 14.34229609963106
IRIDIUM 77 [+]          
1 25471U 98051E   17030.52414005  .00000126  00000-0  37777-4 0  9998
2 25471  86.3936  79.2090 0002266  96.6714  21.3563 14.34223538968303
IRIDIUM 2 [-]           
1 25527U 98066A   17030.32980421  .00001403  00000-0  70867-4 0  9990
2 25527  85.5317 113.6169 0007566 226.7983 133.2625 15.16129368996985
IRIDIUM 86 [+]          
1 25528U 98066B   17030.45988681 -.00000026  00000-0 -16315-4 0  9991
2 25528  86.3926  47.3848 0002289  88.1870 271.9588 14.34217147959620
IRIDIUM 84 [+]          
1 25530U 98066D   17030.49161064 -.00000036  00000-0 -19856-4 0  9990
2 25530  86.3927  47.5342 0002091  89.3423 270.8012 14.34216971957265
IRIDIUM 83 [+]          
1 25531U 98066E   17030.45354780 -.00000026  00000-0 -16313-4 0  9990
2 25531  86.3930  47.6698 0002048  88.1404 272.0027 14.34217501954619
IRIDIUM 20 [+]          
1 25577U 98074A   17030.30374158  .00000205  00000-0  66061-4 0  9996
2 25577  86.3984 313.0372 0002157  83.3215 276.8226 14.34218252948671
IRIDIUM 11 [+]          
1 25578U 98074B   17030.41268935  .00000203  00000-0  65426-4 0  9996
2 25578  86.3983 313.1947 0002168  80.7080  56.2110 14.34219161957653
IRIDIUM 14 [+]          
1 25777U 99032A   17030.35738824  .00000164  00000-0  51444-4 0  9995
2 25777  86.3961 281.5596 0002209  85.6234 274.5214 14.34220052934925
IRIDIUM 21 [+]          
1 25778U 99032B   17030.25589691  .00000163  00000-0  51029-4 0  9999
2 25778  86.3961 281.6226 0001947  88.2614 271.8805 14.34220875928344
IRIDIUM 91 [+]          
1 27372U 02005A   17030.38583222  .00000018  00000-0 -82509-6 0  9992
2 27372  86.3383 345.1247 0002526  85.0317  26.5017 14.34215597791873
IRIDIUM 90 [S]          
1 27373U 02005B   17030.46849349 -.00000015  00000-0 -10411-4 0  9996
2 27373  86.4441  47.6428 0002256  90.4833 269.6627 14.42947465791498
IRIDIUM 94 [+]          
1 27374U 02005C   17030.28725810  .00000217  00000-0  70305-4 0  9993
2 27374  86.3986 313.3734 0002498 100.3842  11.0535 14.34218165796181
IRIDIUM 95 [+]          
1 27375U 02005D   17030.54181686  .00000145  00000-0  44570-4 0  9995
2 27375  86.3756 345.0413 0002211  88.4959 271.6490 14.34216838791185
IRIDIUM 96 [+]          
1 27376U 02005E   17030.45006635 -.00000040  00000-0 -21191-4 0  9996
2 27376  86.3984  16.7446 0001321 121.2899 238.8426 14.34213727796371
IRIDIUM 97 [+]          
1 27450U 02031A   17030.48814337  .00000007  00000-0 -46973-5 0  9995
2 27450  86.3956  16.4544 0002017  83.8207 276.3218 14.34213132770499
IRIDIUM 98 [+]          
1 27451U 02031B   17030.57535611  .00000131  00000-0  39800-4 0  9998
2 27451  86.3936  79.7611 0002087  93.7179  59.4491 14.34218146771573
